[
{"CCSDS_OMM_VERS":"2.0",
"COMMENT":"GENERATED VIA SPACE-TRACK.ORG API",
"CREATION_DATE":"2022-11-30T22:36:14",
"ORIGINATOR":"18 SPCS",
"OBJECT_NAME":"VANGUARD 1",
"OBJECT_ID":"1958-002B",
"CENTER_NAME":"EARTH",
"REF_FRAME":"TEME",
"TIME_SYSTEM":"UTC",
"MEAN_ELEMENT_THEORY":"SGP4",
"EPOCH":"2022-11-30T17:51:49.296384",
"MEAN_MOTION":"10.85038156",
"ECCENTRICITY":"0.18457220",
"INCLINATION":"34.2490",
"RA_OF_ASC_NODE":"346.9265",
"ARG_OF_PERICENTER":"66.0949",
"MEAN_ANOMALY":"312.1720",
"EPHEMERIS_TYPE":"0",
"CLASSIFICATION_TYPE":"U",
"NORAD_CAT_ID":"5",
"ELEMENT_SET_NO":"999",
"REV_AT_EPOCH":"30270",
"BSTAR":"0.00015418000000",
"MEAN_MOTION_DOT":"0.00000101",
"MEAN_MOTION_DDOT":"0.0000000000000",
"SEMIMAJOR_AXIS":"8618.635",
"PERIOD":"132.714",
"APOAPSIS":"3831.261",
"PERIAPSIS":"649.740",
"OBJECT_TYPE":"PAYLOAD",
"RCS_SIZE":"SMALL",
"COUNTRY_CODE":"US",
"LAUNCH_DATE":"1958-03-17",
"SITE":"AFETR",
"DECAY_DATE":null,
"FILE":"3675916",
"GP_ID":"219181552",
"TLE_LINE0":"0 VANGUARD 1",
"TLE_LINE1":"1     5U 58002B   22334.74432056  .00000101  00000-0  15418-3 0  9999",
"TLE_LINE2":"2     5  34.2490 346.9265 1845722  66.0949 312.1720 10.85038156302702"},
{"CCSDS_OMM_VERS":"2.0",
"COMMENT":"GENERATED VIA SPACE-TRACK.ORG API",
"CREATION_DATE":"2022-12-01T17:35:25",
"ORIGINATOR":"18 SPCS",
"OBJECT_NAME":"VANGUARD 1",
"OBJECT_ID":"1958-002B",
"CENTER_NAME":"EARTH",
"REF_FRAME":"TEME",
"TIME_SYSTEM":"UTC",
"MEAN_ELEMENT_THEORY":"SGP4",
"EPOCH":"2022-12-01T02:42:10.433664",
"MEAN_MOTION":"10.85038245",
"ECCENTRICITY":"0.18457180",
"INCLINATION":"34.2490",
"RA_OF_ASC_NODE":"345.7915",
"ARG_OF_PERICENTER":"67.7532",
"MEAN_ANOMALY":"310.8033",
"EPHEMERIS_TYPE":"0",
"CLASSIFICATION_TYPE":"U",
"NORAD_CAT_ID":"5",
"ELEMENT_SET_NO":"999",
"REV_AT_EPOCH":"30264",
"BSTAR":"0.00015292000000",
"MEAN_MOTION_DOT":"0.00000100",
"MEAN_MOTION_DDOT":"0.0000000000000",
"SEMIMAJOR_AXIS":"8618.635",
"PERIOD":"132.714",
"APOAPSIS":"3831.257",
"PERIAPSIS":"649.743",
"OBJECT_TYPE":"PAYLOAD",
"RCS_SIZE":"SMALL",
"COUNTRY_CODE":"US",
"LAUNCH_DATE":"1958-03-17",
"SITE":"AFETR",
"DECAY_DATE":null,
"FILE":"3677495",
"GP_ID":"219244012",
"TLE_LINE0":"0 VANGUARD 1",
"TLE_LINE1":"1 00005U 58002B   22335.11262076  .00000100  00000-0  15292-3 0  9993",
"TLE_LINE2":"2 00005  34.2490 345.7915 1845718  67.7532 310.8033 10.85038245302646"},
{"CCSDS_OMM_VERS":"2.0",
"COMMENT":"GENERATED VIA SPACE-TRACK.ORG API",
"CREATION_DATE":"2022-12-02T02:41:04",
"ORIGINATOR":"18 SPCS",
"OBJECT_NAME":"VANGUARD 1",
"OBJECT_ID":"1958-002B",
"CENTER_NAME":"EARTH",
"REF_FRAME":"TEME",
"TIME_SYSTEM":"UTC",
"MEAN_ELEMENT_THEORY":"SGP4",
"EPOCH":"2022-12-01T18:10:16.728384",
"MEAN_MOTION":"10.85038442",
"ECCENTRICITY":"0.18457140",
"INCLINATION":"34.2490",
"RA_OF_ASC_NODE":"343.8051",
"ARG_OF_PERICENTER":"70.6550",
"MEAN_ANOMALY":"308.3777",
"EPHEMERIS_TYPE":"0",
"CLASSIFICATION_TYPE":"U",
"NORAD_CAT_ID":"5",
"ELEMENT_SET_NO":"999",
"REV_AT_EPOCH":"30271",
"BSTAR":"0.00015341000000",
"MEAN_MOTION_DOT":"0.00000101",
"MEAN_MOTION_DDOT":"0.0000000000000",
"SEMIMAJOR_AXIS":"8618.634",
"PERIOD":"132.714",
"APOAPSIS":"3831.252",
"PERIAPSIS":"649.745",
"OBJECT_TYPE":"PAYLOAD",
"RCS_SIZE":"SMALL",
"COUNTRY_CODE":"US",
"LAUNCH_DATE":"1958-03-17",
"SITE":"AFETR",
"DECAY_DATE":null,
"FILE":"3678231",
"GP_ID":"219282836",
"TLE_LINE0":"0 VANGUARD 1",
"TLE_LINE1":"1 00005U 58002B   22335.75713806  .00000101  00000-0  15341-3 0  9991",
"TLE_LINE2":"2 00005  34.2490 343.8051 1845714  70.6550 308.3777 10.85038442302719"},
{"CCSDS_OMM_VERS":"2.0",
"COMMENT":"GENERATED VIA SPACE-TRACK.ORG API",
"CREATION_DATE":"2022-12-02T22:11:59",
"ORIGINATOR":"18 SPCS",
"OBJECT_NAME":"VANGUARD 1",
"OBJECT_ID":"1958-002B",
"CENTER_NAME":"EARTH",
"REF_FRAME":"TEME",
"TIME_SYSTEM":"UTC",
"MEAN_ELEMENT_THEORY":"SGP4",
"EPOCH":"2022-12-02T07:25:47.121024",
"MEAN_MOTION":"10.85038595",
"ECCENTRICITY":"0.18457110",
"INCLINATION":"34.2490",
"RA_OF_ASC_NODE":"342.1026",
"ARG_OF_PERICENTER":"73.1423",
"MEAN_ANOMALY":"306.2662",
"EPHEMERIS_TYPE":"0",
"CLASSIFICATION_TYPE":"U",
"NORAD_CAT_ID":"5",
"ELEMENT_SET_NO":"999",
"REV_AT_EPOCH":"30277",
"BSTAR":"0.00015215000000",
"MEAN_MOTION_DOT":"0.00000100",
"MEAN_MOTION_DDOT":"0.0000000000000",
"SEMIMAJOR_AXIS":"8618.633",
"PERIOD":"132.714",
"APOAPSIS":"3831.248",
"PERIAPSIS":"649.747",
"OBJECT_TYPE":"PAYLOAD",
"RCS_SIZE":"SMALL",
"COUNTRY_CODE":"US",
"LAUNCH_DATE":"1958-03-17",
"SITE":"AFETR",
"DECAY_DATE":null,
"FILE":"3679245",
"GP_ID":"219327933",
"TLE_LINE0":"0 VANGUARD 1",
"TLE_LINE1":"1 00005U 58002B   22336.30957316  .00000100  00000-0  15215-3 0  9998",
"TLE_LINE2":"2 00005  34.2490 342.1026 1845711  73.1423 306.2662 10.85038595302772"},
{"CCSDS_OMM_VERS":"2.0",
"COMMENT":"GENERATED VIA SPACE-TRACK.ORG API",
"CREATION_DATE":"2022-12-03T07:26:13",
"ORIGINATOR":"18 SPCS",
"OBJECT_NAME":"VANGUARD 1",
"OBJECT_ID":"1958-002B",
"CENTER_NAME":"EARTH",
"REF_FRAME":"TEME",
"TIME_SYSTEM":"UTC",
"MEAN_ELEMENT_THEORY":"SGP4",
"EPOCH":"2022-12-03T01:06:26.565120",
"MEAN_MOTION":"10.85038792",
"ECCENTRICITY":"0.18457080",
"INCLINATION":"34.2489",
"RA_OF_ASC_NODE":"339.8327",
"ARG_OF_PERICENTER":"76.4585",
"MEAN_ANOMALY":"303.4028",
"EPHEMERIS_TYPE":"0",
"CLASSIFICATION_TYPE":"U",
"NORAD_CAT_ID":"5",
"ELEMENT_SET_NO":"999",
"REV_AT_EPOCH":"30295",
"BSTAR":"0.00015004000000",
"MEAN_MOTION_DOT":"0.00000098",
"MEAN_MOTION_DDOT":"0.0000000000000",
"SEMIMAJOR_AXIS":"8618.632",
"PERIOD":"132.714",
"APOAPSIS":"3831.245",
"PERIAPSIS":"649.749",
"OBJECT_TYPE":"PAYLOAD",
"RCS_SIZE":"SMALL",
"COUNTRY_CODE":"US",
"LAUNCH_DATE":"1958-03-17",
"SITE":"AFETR",
"DECAY_DATE":null,
"FILE":"3679746",
"GP_ID":"219414223",
"TLE_LINE0":"0 VANGUARD 1",
"TLE_LINE1":"1     5U 58002B   22337.04614080  .00000098  00000-0  15004-3 0  9990",
"TLE_LINE2":"2     5  34.2489 339.8327 1845708  76.4585 303.4028 10.85038792302952"},
{"CCSDS_OMM_VERS":"2.0",
"COMMENT":"GENERATED VIA SPACE-TRACK.ORG API",
"CREATION_DATE":"2022-12-03T21:16:43",
"ORIGINATOR":"18 SPCS",
"OBJECT_NAME":"VANGUARD 1",
"OBJECT_ID":"1958-002B",
"CENTER_NAME":"EARTH",
"REF_FRAME":"TEME",
"TIME_SYSTEM":"UTC",
"MEAN_ELEMENT_THEORY":"SGP4",
"EPOCH":"2022-12-03T07:44:11.028768",
"MEAN_MOTION":"10.85038873",
"ECCENTRICITY":"0.18457090",
"INCLINATION":"34.2489",
"RA_OF_ASC_NODE":"338.9816",
"ARG_OF_PERICENTER":"77.7019",
"MEAN_ANOMALY":"302.3145",
"EPHEMERIS_TYPE":"0",
"CLASSIFICATION_TYPE":"U",
"NORAD_CAT_ID":"5",
"ELEMENT_SET_NO":"999",
"REV_AT_EPOCH":"30288",
"BSTAR":"0.00014921000000",
"MEAN_MOTION_DOT":"0.00000098",
"MEAN_MOTION_DDOT":"0.0000000000000",
"SEMIMAJOR_AXIS":"8618.631",
"PERIOD":"132.714",
"APOAPSIS":"3831.245",
"PERIAPSIS":"649.748",
"OBJECT_TYPE":"PAYLOAD",
"RCS_SIZE":"SMALL",
"COUNTRY_CODE":"US",
"LAUNCH_DATE":"1958-03-17",
"SITE":"AFETR",
"DECAY_DATE":null,
"FILE":"3680253",
"GP_ID":"219425516",
"TLE_LINE0":"0 VANGUARD 1",
"TLE_LINE1":"1 00005U 58002B   22337.32234987  .00000098  00000-0  14921-3 0  9992",
"TLE_LINE2":"2 00005  34.2489 338.9816 1845709  77.7019 302.3145 10.85038873302882"},
{"CCSDS_OMM_VERS":"2.0",
"COMMENT":"GENERATED VIA SPACE-TRACK.ORG API",
"CREATION_DATE":"2022-12-04T03:40:49",
"ORIGINATOR":"18 SPCS",
"OBJECT_NAME":"VANGUARD 1",
"OBJECT_ID":"1958-002B",
"CENTER_NAME":"EARTH",
"REF_FRAME":"TEME",
"TIME_SYSTEM":"UTC",
"MEAN_ELEMENT_THEORY":"SGP4",
"EPOCH":"2022-12-03T16:34:30.024192",
"MEAN_MOTION":"10.85038975",
"ECCENTRICITY":"0.18457080",
"INCLINATION":"34.2490",
"RA_OF_ASC_NODE":"337.8466",
"ARG_OF_PERICENTER":"79.3599",
"MEAN_ANOMALY":"300.8504",
"EPHEMERIS_TYPE":"0",
"CLASSIFICATION_TYPE":"U",
"NORAD_CAT_ID":"5",
"ELEMENT_SET_NO":"999",
"REV_AT_EPOCH":"30292",
"BSTAR":"0.00014642000000",
"MEAN_MOTION_DOT":"0.00000096",
"MEAN_MOTION_DDOT":"0.0000000000000",
"SEMIMAJOR_AXIS":"8618.631",
"PERIOD":"132.714",
"APOAPSIS":"3831.244",
"PERIAPSIS":"649.748",
"OBJECT_TYPE":"PAYLOAD",
"RCS_SIZE":"SMALL",
"COUNTRY_CODE":"US",
"LAUNCH_DATE":"1958-03-17",
"SITE":"AFETR",
"DECAY_DATE":null,
"FILE":"3680595",
"GP_ID":"219457039",
"TLE_LINE0":"0 VANGUARD 1",
"TLE_LINE1":"1 00005U 58002B   22337.69062528  .00000096  00000-0  14642-3 0  9990",
"TLE_LINE2":"2 00005  34.2490 337.8466 1845708  79.3599 300.8504 10.85038975302923"},
{"CCSDS_OMM_VERS":"2.0",
"COMMENT":"GENERATED VIA SPACE-TRACK.ORG API",
"CREATION_DATE":"2022-12-04T17:29:06",
"ORIGINATOR":"18 SPCS",
"OBJECT_NAME":"VANGUARD 1",
"OBJECT_ID":"1958-002B",
"CENTER_NAME":"EARTH",
"REF_FRAME":"TEME",
"TIME_SYSTEM":"UTC",
"MEAN_ELEMENT_THEORY":"SGP4",
"EPOCH":"2022-12-04T08:02:32.475840",
"MEAN_MOTION":"10.85039115",
"ECCENTRICITY":"0.18457080",
"INCLINATION":"34.2489",
"RA_OF_ASC_NODE":"335.8606",
"ARG_OF_PERICENTER":"82.2616",
"MEAN_ANOMALY":"298.2520",
"EPHEMERIS_TYPE":"0",
"CLASSIFICATION_TYPE":"U",
"NORAD_CAT_ID":"5",
"ELEMENT_SET_NO":"999",
"REV_AT_EPOCH":"30299",
"BSTAR":"0.00014246000000",
"MEAN_MOTION_DOT":"0.00000093",
"MEAN_MOTION_DDOT":"0.0000000000000",
"SEMIMAJOR_AXIS":"8618.630",
"PERIOD":"132.714",
"APOAPSIS":"3831.243",
"PERIAPSIS":"649.748",
"OBJECT_TYPE":"PAYLOAD",
"RCS_SIZE":"SMALL",
"COUNTRY_CODE":"US",
"LAUNCH_DATE":"1958-03-17",
"SITE":"AFETR",
"DECAY_DATE":null,
"FILE":"3681207",
"GP_ID":"219498844",
"TLE_LINE0":"0 VANGUARD 1",
"TLE_LINE1":"1 00005U 58002B   22338.33509810  .00000093  00000-0  14246-3 0  9999",
"TLE_LINE2":"2 00005  34.2489 335.8606 1845708  82.2616 298.2520 10.85039115302990"}]